STARLINK-37578          
1 69451U 26127J   26177.25002315 -.00158331  00000+0 -10417-2 0  9991
2 69451  53.1584 217.1080 0001274  94.6677  22.4500 15.75377793  4107
STARLINK-37577          
1 69452U 26127K   26177.27921931 -.01002418  00000+0 -69629-2 0  9992
2 69452  53.1584 216.8024 0001815 308.0315  52.0541 15.76060046  2848
STARLINK-37500          
1 69453U 26127L   26177.28864043  .00176535  00000+0  11312-2 0  9999
2 69453  53.1585 216.8661 0001358 107.3767 252.7402 15.75252639  2845
STARLINK-37575          
1 69454U 26127M   26177.27522964 -.00874450  00000+0 -57561-2 0  9991
2 69454  53.1579 216.7765 0001013 142.3627 217.7465 15.77331534  2849
STARLINK-37642          
1 69455U 26127N   26177.25002315 -.00458561  00000+0 -31211-2 0  9998
2 69455  53.1584 217.1100 0001307  84.5252  30.7916 15.75463770  4102
STARLINK-37513          
1 69456U 26127P   26177.20284980  .00229705  00000+0  11345-2 0  9994
2 69456  53.1571 217.0300 0001779 127.3435 232.7750 15.80914533  2834
STARLINK-37563          
1 69457U 26127Q   26177.25002315 -.00046732  00000+0 -30189-3 0  9997
2 69457  53.1594 216.9510 0001185  95.6976  96.7925 15.75274630  4104
STARLINK-37565          
1 69458U 26127R   26175.68433985  .02344814  00000+0  10830-1 0  9995
2 69458  53.1587 224.6254 0003273 355.2523   4.8467 15.79767842  2599
STARLINK-37498          
1 69459U 26127S   26177.25002315 -.00065573  00000+0 -42634-3 0  9991
2 69459  53.1581 217.0528 0001133  93.2863  49.5689 15.75269321  4109
STARLINK-37384          
1 69460U 26127T   26177.25002315 -.00041842  00000+0 -26971-3 0  9992
2 69460  53.1595 216.8944 0001006  77.9089 142.1950 15.75274724  4107
STARLINK-37707          
1 69461U 26127U   26177.25002315 -.00040705  00000+0 -26227-3 0  9994
2 69461  53.1595 216.8441 0001201  86.8642 157.1326 15.75270636  4102
STARLINK-37525          
1 69462U 26127V   26177.20217115  .00158798  00000+0  10203-2 0  9992
2 69462  53.1587 217.0254 0001471  74.0088 286.1094 15.75249294  2830
STARLINK-37526          
1 69463U 26127W   26177.26140457  .00127416  00000+0  82256-3 0  9994
2 69463  53.1585 216.6807 0001581 110.4557 249.6633 15.75248154  2844
STARLINK-37574          
1 69464U 26127X   26177.25002315 -.00046960  00000+0 -30336-3 0  9992
2 69464  53.1590 216.7903 0001114  81.0327 188.7141 15.75277112  4103
STARLINK-37535          
1 69465U 26127Y   26177.26107986  .00115664  00000+0  74939-3 0  9997
2 69465  53.1585 216.6783 0001251  79.5802 280.5359 15.75209173  2848
STARLINK-37583          
1 69466U 26127Z   26177.30319558  .00125833  00000+0  63009-3 0  9998
2 69466  53.1584 216.2191 0001489 109.3685 250.7499 15.80932108  2853
STARLINK-37546          
1 69467U 26127AA  26177.25002315 -.00060550  00000+0 -39295-3 0  9999
2 69467  53.1583 216.6821 0001183  91.7089 229.5469 15.75279414  4109
STARLINK-37532          
1 69468U 26127AB  26177.30204877  .00199854  00000+0  99056-3 0  9992
2 69468  53.1582 216.2111 0001197 103.7002 256.4154 15.80922907  2859
STARLINK-37708          
1 69469U 26127AC  26177.25002315 -.00043109  00000+0 -27817-3 0  9999
2 69469  53.1582 216.6773 0001407  71.5828 251.5466 15.75263190  4108
STARLINK-37686          
1 69470U 26127AD  26177.25002315 -.00137139  00000+0 -90283-3 0  9995
2 69470  53.1589 216.6285 0001214  86.9839 260.0666 15.75293373  4106
STARLINK-37451          
1 69471U 26127AE  26177.29665388  .00188375  00000+0  93568-3 0  9990
2 69471  53.1586 216.1739 0001136 105.5551 254.5597 15.80909572  2857
DTC TEST OBJECT A       
1 69472U 26128A   26176.71163238  .00030286  00000+0  42904-3 0  9990
2 69472  54.9931 265.6375 0009525 319.6938  40.3391 15.56236417  2557
DTC TEST OBJECT B       
1 69473U 26128B   26176.64305010  .00039502  00000+0  54578-3 0  9999
2 69473  55.0025 265.9222 0009518 319.9481  40.0852 15.56781027  2535
TJS-25                  
1 69474U 26129A   26176.90522434 -.00000359  00000+0  00000+0 0  9997
2 69474   5.9752 330.2676 0002283 304.6893  85.2074  1.00274334   151
STARLINK-37816          
1 69478U 26131A   26177.25002315 -.00057725  00000+0 -30201-3 0  9994
2 69478  97.2831 198.0531 0000700 104.5704 308.9833 15.80860961  3462
STARLINK-37878          
1 69479U 26131B   26177.25002315 -.00067199  00000+0 -35192-3 0  9995
2 69479  97.2836 198.0399 0000948  83.5917 298.0480 15.80870573  2349
STARLINK-37817          
1 69480U 26131C   26177.25002315 -.00080261  00000+0 -42076-3 0  9991
2 69480  97.2837 198.0569 0000701  80.3808 341.7028 15.80888474  3469
STARLINK-37727          
1 69481U 26131D   26177.25002315 -.00019329  00000+0 -10023-3 0  9996
2 69481  97.2839 198.0586 0001256  91.9493 334.4235 15.80852036  3469
STARLINK-37814          
1 69482U 26131E   26177.25002315 -.00031181  00000+0 -16234-3 0  9997
2 69482  97.2840 198.0605 0000637 118.2074 312.4397 15.80856167  3468
STARLINK-37869          
1 69483U 26131F   26177.25002315 -.00006151  00000+0 -31357-4 0  9991
2 69483  97.2842 198.0622 0000544 125.4739 309.4434 15.80845605  3468
