OBJECT_NAME,OBJECT_ID,EPOCH,MEAN_MOTION,ECCENTRICITY,INCLINATION,RA_OF_ASC_NODE,ARG_OF_PERICENTER,MEAN_ANOMALY,EPHEMERIS_TYPE,CLASSIFICATION_TYPE,NORAD_CAT_ID,ELEMENT_SET_NO,REV_AT_EPOCH,BSTAR,MEAN_MOTION_DOT,MEAN_MOTION_DDOT
STARLINK-37578,2026-127J,2026-06-26T06:00:02.000160,15.75377793,.00012748,53.1584,217.1080,94.6677,22.4500,0,U,69451,999,410,-.10417186E-2,-.158331E-2,0
STARLINK-37577,2026-127K,2026-06-26T06:42:04.548384,15.76060046,.00018155,53.1584,216.8024,308.0315,52.0541,0,U,69452,999,284,-.69628667E-2,-.1002418E-1,0
STARLINK-37500,2026-127L,2026-06-26T06:55:38.533152,15.75252639,.00013586,53.1585,216.8661,107.3767,252.7402,0,U,69453,999,284,.11312352E-2,.176535E-2,0
STARLINK-37575,2026-127M,2026-06-26T06:36:19.840896,15.77331534,.00010137,53.1579,216.7765,142.3627,217.7465,0,U,69454,999,284,-.57561224E-2,-.87445E-2,0
STARLINK-37642,2026-127N,2026-06-26T06:00:02.000160,15.75463770,.00013076,53.1584,217.1100,84.5252,30.7916,0,U,69455,999,410,-.31210766E-2,-.458561E-2,0
STARLINK-37513,2026-127P,2026-06-26T04:52:06.222720,15.80914533,.00017796,53.1571,217.0300,127.3435,232.7750,0,U,69456,999,283,.1134464E-2,.229705E-2,0
STARLINK-37563,2026-127Q,2026-06-26T06:00:02.000160,15.75274630,.00011854,53.1594,216.9510,95.6976,96.7925,0,U,69457,999,410,-.30188709E-3,-.46732E-3,0
STARLINK-37565,2026-127R,2026-06-24T16:25:26.963040,15.79767842,.00032736,53.1587,224.6254,355.2523,4.8467,0,U,69458,999,259,.10829511E-1,.2344814E-1,0
STARLINK-37498,2026-127S,2026-06-26T06:00:02.000160,15.75269321,.00011334,53.1581,217.0528,93.2863,49.5689,0,U,69459,999,410,-.42633826E-3,-.65573E-3,0
STARLINK-37384,2026-127T,2026-06-26T06:00:02.000160,15.75274724,.00010068,53.1595,216.8944,77.9089,142.1950,0,U,69460,999,410,-.26971059E-3,-.41842E-3,0
STARLINK-37707,2026-127U,2026-06-26T06:00:02.000160,15.75270636,.0001201,53.1595,216.8441,86.8642,157.1326,0,U,69461,999,410,-.26227444E-3,-.40705E-3,0
STARLINK-37525,2026-127V,2026-06-26T04:51:07.587360,15.75249294,.00014716,53.1587,217.0254,74.0088,286.1094,0,U,69462,999,283,.10202802E-2,.158798E-2,0
STARLINK-37526,2026-127W,2026-06-26T06:16:25.354848,15.75248154,.00015817,53.1585,216.6807,110.4557,249.6633,0,U,69463,999,284,.82255537E-3,.127416E-2,0
STARLINK-37574,2026-127X,2026-06-26T06:00:02.000160,15.75277112,.00011149,53.1590,216.7903,81.0327,188.7141,0,U,69464,999,410,-.30335733E-3,-.4696E-3,0
STARLINK-37535,2026-127Y,2026-06-26T06:15:57.299904,15.75209173,.00012515,53.1585,216.6783,79.5802,280.5359,0,U,69465,999,284,.74939167E-3,.115664E-2,0
STARLINK-37583,2026-127Z,2026-06-26T07:16:36.098112,15.80932108,.00014895,53.1584,216.2191,109.3685,250.7499,0,U,69466,999,285,.6300941E-3,.125833E-2,0
STARLINK-37546,2026-127AA,2026-06-26T06:00:02.000160,15.75279414,.00011834,53.1583,216.6821,91.7089,229.5469,0,U,69467,999,410,-.39294753E-3,-.6055E-3,0
STARLINK-37532,2026-127AB,2026-06-26T07:14:57.013728,15.80922907,.00011976,53.1582,216.2111,103.7002,256.4154,0,U,69468,999,285,.99055828E-3,.199854E-2,0
STARLINK-37708,2026-127AC,2026-06-26T06:00:02.000160,15.75263190,.00014074,53.1582,216.6773,71.5828,251.5466,0,U,69469,999,410,-.2781718E-3,-.43109E-3,0
STARLINK-37686,2026-127AD,2026-06-26T06:00:02.000160,15.75293373,.00012146,53.1589,216.6285,86.9839,260.0666,0,U,69470,999,410,-.90282708E-3,-.137139E-2,0
STARLINK-37451,2026-127AE,2026-06-26T07:07:10.895232,15.80909572,.00011363,53.1586,216.1739,105.5551,254.5597,0,U,69471,999,285,.93568415E-3,.188375E-2,0
DTC TEST OBJECT A,2026-128A,2026-06-25T17:04:45.037632,15.56236417,.00095254,54.9931,265.6375,319.6938,40.3391,0,U,69472,999,255,.4290446E-3,.30286E-3,0
DTC TEST OBJECT B,2026-128B,2026-06-25T15:25:59.528640,15.56781027,.00095187,55.0025,265.9222,319.9481,40.0852,0,U,69473,999,253,.54578005E-3,.39502E-3,0
TJS-25,2026-129A,2026-06-25T21:43:31.382976,1.00274334,.00022835,5.9752,330.2676,304.6893,85.2074,0,U,69474,999,15,0,-.359E-5,0
STARLINK-37816,2026-131A,2026-06-26T06:00:02.000160,15.80860961,.00007,97.2831,198.0531,104.5704,308.9833,0,U,69478,999,346,-.30201293E-3,-.57725E-3,0
STARLINK-37878,2026-131B,2026-06-26T06:00:02.000160,15.80870573,.00009484,97.2836,198.0399,83.5917,298.0480,0,U,69479,999,234,-.35191853E-3,-.67199E-3,0
STARLINK-37817,2026-131C,2026-06-26T06:00:02.000160,15.80888474,.00007013,97.2837,198.0569,80.3808,341.7028,0,U,69480,999,346,-.42076216E-3,-.80261E-3,0
STARLINK-37727,2026-131D,2026-06-26T06:00:02.000160,15.80852036,.00012569,97.2839,198.0586,91.9493,334.4235,0,U,69481,999,346,-.10022624E-3,-.19329E-3,0
STARLINK-37814,2026-131E,2026-06-26T06:00:02.000160,15.80856167,.00006371,97.2840,198.0605,118.2074,312.4397,0,U,69482,999,346,-.16233812E-3,-.31181E-3,0
STARLINK-37869,2026-131F,2026-06-26T06:00:02.000160,15.80845605,.00005449,97.2842,198.0622,125.4739,309.4434,0,U,69483,999,346,-.31356539E-4,-.6151E-4,0
